[{"OBJECT_NAME":"STARLINK-3194","OBJECT_ID":"2021-115AL","EPOCH":"2026-03-09T10:18:27.803808","MEAN_MOTION":15.08835621,"ECCENTRICITY":0.00016346,"INCLINATION":53.2166,"RA_OF_ASC_NODE":140.2941,"ARG_OF_PERICENTER":81.7139,"MEAN_ANOMALY":278.4039,"EPHEMERIS_TYPE":0,"CLASSIFICATION_TYPE":"U","NORAD_CAT_ID":49758,"ELEMENT_SET_NO":999,"REV_AT_EPOCH":23563,"BSTAR":-0.00016993304,"MEAN_MOTION_DOT":-2.991e-5,"MEAN_MOTION_DDOT":0},{"OBJECT_NAME":"YUNYAO-1 45","OBJECT_ID":"2025-059C","EPOCH":"2026-03-09T23:25:14.115648","MEAN_MOTION":15.10348188,"ECCENTRICITY":0.00171316,"INCLINATION":97.6099,"RA_OF_ASC_NODE":251.0366,"ARG_OF_PERICENTER":134.7318,"MEAN_ANOMALY":225.5309,"EPHEMERIS_TYPE":0,"CLASSIFICATION_TYPE":"U","NORAD_CAT_ID":63346,"ELEMENT_SET_NO":999,"REV_AT_EPOCH":5332,"BSTAR":0.00033512738,"MEAN_MOTION_DOT":5.451e-5,"MEAN_MOTION_DDOT":0}]
